start=new Date('2023-02-07T00:00:00.000Z').valueOf();
sats=[{"PERIOD":"95.437","COUNTRY_CODE":"US","PERIAPSIS":"538.853","MEAN_ANOMALY":"271.0192","BSTAR":"0.00008389800000","FILE":"3776034","SEMIMAJOR_AXIS":"6917.865","SITE":"AFETR","ELEMENT_SET_NO":"999","DECAY_DATE":null,"MEAN_MOTION_DOT":"0.00001048","EPOCH":"2023-02-06T18:26:52.440864","CLASSIFICATION_TYPE":"U","RCS_SIZE":"LARGE","OBJECT_TYPE":"PAYLOAD","INCLINATION":"53.2155","MEAN_ELEMENT_THEORY":"SGP4","RA_OF_ASC_NODE":"218.0622","APOAPSIS":"540.608","REF_FRAME":"TEME","EPHEMERIS_TYPE":"0","TLE_LINE1":"1 52349U 22045U   23037.76866251  .00001048  00000-0  83898-4 0  9995","OBJECT_ID":"2022-045U","OBJECT_NAME":"STARLINK-3819","LAUNCH_DATE":"2022-04-29","MEAN_MOTION_DDOT":"0.0000000000000","CENTER_NAME":"EARTH","TIME_SYSTEM":"UTC","NORAD_CAT_ID":"52349","MEAN_MOTION":"15.08844891","GP_ID":"224651909","ECCENTRICITY":"0.00012690","REV_AT_EPOCH":"4565","ARG_OF_PERICENTER":"89.0946","TLE_LINE2":"2 52349  53.2155 218.0622 0001269  89.0946 271.0192 15.08844891 45651"},{"REV_AT_EPOCH":"4565","ARG_OF_PERICENTER":"87.7674","TLE_LINE2":"2 52350  53.2155 218.1282 0001107  87.7674 272.3445 15.08840814 45656","OBJECT_ID":"2022-045V","TLE_LINE1":"1 52350U 22045V   23037.75394759  .00001176  00000-0  91951-4 0  9996","OBJECT_NAME":"STARLINK-3754","CENTER_NAME":"EARTH","TIME_SYSTEM":"UTC","MEAN_MOTION_DDOT":"0.0000000000000","LAUNCH_DATE":"2022-04-29","ECCENTRICITY":"0.00011070","GP_ID":"224653160","NORAD_CAT_ID":"52350","MEAN_MOTION":"15.08840814","RCS_SIZE":"MEDIUM","CLASSIFICATION_TYPE":"U","EPOCH":"2023-02-06T18:05:41.071776","OBJECT_TYPE":"PAYLOAD","MEAN_ELEMENT_THEORY":"SGP4","RA_OF_ASC_NODE":"218.1282","INCLINATION":"53.2155","EPHEMERIS_TYPE":"0","APOAPSIS":"540.509","REF_FRAME":"TEME","PERIOD":"95.438","COUNTRY_CODE":"US","BSTAR":"0.00009195100000","PERIAPSIS":"538.977","MEAN_ANOMALY":"272.3445","SEMIMAJOR_AXIS":"6917.878","SITE":"AFETR","ELEMENT_SET_NO":"999","FILE":"3776034","MEAN_MOTION_DOT":"0.00001176","DECAY_DATE":null},{"TLE_LINE1":"1 52352U 22045X   23037.80914388  .00000982  00000-0  79752-4 0  9999","OBJECT_ID":"2022-045X","OBJECT_NAME":"STARLINK-3838","LAUNCH_DATE":"2022-04-29","MEAN_MOTION_DDOT":"0.0000000000000","CENTER_NAME":"EARTH","TIME_SYSTEM":"UTC","NORAD_CAT_ID":"52352","MEAN_MOTION":"15.08846688","GP_ID":"224653411","ECCENTRICITY":"0.00011140","REV_AT_EPOCH":"4566","ARG_OF_PERICENTER":"87.0212","TLE_LINE2":"2 52352  53.2150 217.8839 0001114  87.0212 273.0908 15.08846688 45664","PERIOD":"95.437","COUNTRY_CODE":"US","PERIAPSIS":"538.954","MEAN_ANOMALY":"273.0908","BSTAR":"0.00007975200000","FILE":"3776034","SEMIMAJOR_AXIS":"6917.860","SITE":"AFETR","ELEMENT_SET_NO":"999","DECAY_DATE":null,"MEAN_MOTION_DOT":"0.00000982","EPOCH":"2023-02-06T19:25:10.031232","CLASSIFICATION_TYPE":"U","RCS_SIZE":"LARGE","OBJECT_TYPE":"PAYLOAD","INCLINATION":"53.2150","MEAN_ELEMENT_THEORY":"SGP4","RA_OF_ASC_NODE":"217.8839","APOAPSIS":"540.496","REF_FRAME":"TEME","EPHEMERIS_TYPE":"0"},{"MEAN_ANOMALY":"269.7900","PERIAPSIS":"538.967","BSTAR":"0.00008555500000","COUNTRY_CODE":"US","PERIOD":"95.437","DECAY_DATE":null,"MEAN_MOTION_DOT":"0.00001074","FILE":"3776034","SEMIMAJOR_AXIS":"6917.858","SITE":"AFETR","ELEMENT_SET_NO":"999","OBJECT_TYPE":"PAYLOAD","EPOCH":"2023-02-06T19:35:45.847104","CLASSIFICATION_TYPE":"U","RCS_SIZE":"LARGE","REF_FRAME":"TEME","APOAPSIS":"540.479","EPHEMERIS_TYPE":"0","INCLINATION":"53.2151","RA_OF_ASC_NODE":"217.8520","MEAN_ELEMENT_THEORY":"SGP4","OBJECT_NAME":"STARLINK-3807","TLE_LINE1":"1 52353U 22045Y   23037.81650286  .00001074  00000-0  85555-4 0  9996","OBJECT_ID":"2022-045Y","MEAN_MOTION":"15.08847244","NORAD_CAT_ID":"52353","GP_ID":"224652159","ECCENTRICITY":"0.00010930","MEAN_MOTION_DDOT":"0.0000000000000","LAUNCH_DATE":"2022-04-29","TIME_SYSTEM":"UTC","CENTER_NAME":"EARTH","ARG_OF_PERICENTER":"90.3218","REV_AT_EPOCH":"4566","TLE_LINE2":"2 52353  53.2151 217.8520 0001093  90.3218 269.7900 15.08847244 45665"},{"TLE_LINE1":"1 52354U 22045Z   23037.79810367  .00000963  00000-0  78544-4 0  9998","OBJECT_ID":"2022-045Z","OBJECT_NAME":"STARLINK-3876","MEAN_MOTION_DDOT":"0.0000000000000","LAUNCH_DATE":"2022-04-29","CENTER_NAME":"EARTH","TIME_SYSTEM":"UTC","NORAD_CAT_ID":"52354","MEAN_MOTION":"15.08842416","ECCENTRICITY":"0.00010080","GP_ID":"224652409","REV_AT_EPOCH":"4566","ARG_OF_PERICENTER":"87.6578","TLE_LINE2":"2 52354  53.2124 217.9416 0001008  87.6578 272.4530 15.08842416 45661","PERIOD":"95.437","COUNTRY_CODE":"US","PERIAPSIS":"539.041","MEAN_ANOMALY":"272.4530","BSTAR":"0.00007854400000","FILE":"3776034","ELEMENT_SET_NO":"999","SITE":"AFETR","SEMIMAJOR_AXIS":"6917.873","DECAY_DATE":null,"MEAN_MOTION_DOT":"0.00000963","CLASSIFICATION_TYPE":"U","EPOCH":"2023-02-06T19:09:16.157088","RCS_SIZE":"LARGE","OBJECT_TYPE":"PAYLOAD","INCLINATION":"53.2124","MEAN_ELEMENT_THEORY":"SGP4","RA_OF_ASC_NODE":"217.9416","REF_FRAME":"TEME","APOAPSIS":"540.435","EPHEMERIS_TYPE":"0"},{"MEAN_MOTION":"15.08847469","NORAD_CAT_ID":"52355","GP_ID":"224652660","ECCENTRICITY":"0.00010990","MEAN_MOTION_DDOT":"0.0000000000000","LAUNCH_DATE":"2022-04-29","TIME_SYSTEM":"UTC","CENTER_NAME":"EARTH","OBJECT_NAME":"STARLINK-3877","TLE_LINE1":"1 52355U 22045AA  23037.87906256  .00001707  00000-0  12530-3 0  9990","OBJECT_ID":"2022-045AA","TLE_LINE2":"2 52355  53.2144 217.5716 0001099  90.1944 269.9174 15.08847469 45678","ARG_OF_PERICENTER":"90.1944","REV_AT_EPOCH":"4567","DECAY_DATE":null,"MEAN_MOTION_DOT":"0.00001707","FILE":"3776034","SITE":"AFETR","SEMIMAJOR_AXIS":"6917.858","ELEMENT_SET_NO":"999","MEAN_ANOMALY":"269.9174","PERIAPSIS":"538.962","BSTAR":"0.00012530000000","COUNTRY_CODE":"US","PERIOD":"95.437","REF_FRAME":"TEME","APOAPSIS":"540.483","EPHEMERIS_TYPE":"0","INCLINATION":"53.2144","RA_OF_ASC_NODE":"217.5716","MEAN_ELEMENT_THEORY":"SGP4","OBJECT_TYPE":"PAYLOAD","EPOCH":"2023-02-06T21:05:51.005184","CLASSIFICATION_TYPE":"U","RCS_SIZE":"LARGE"},{"MEAN_ANOMALY":"270.6085","PERIAPSIS":"538.911","BSTAR":"0.00008607200000","COUNTRY_CODE":"US","PERIOD":"95.437","DECAY_DATE":null,"MEAN_MOTION_DOT":"0.00001082","FILE":"3776034","SEMIMAJOR_AXIS":"6917.861","SITE":"AFETR","ELEMENT_SET_NO":"999","OBJECT_TYPE":"PAYLOAD","EPOCH":"2023-02-06T19:10:38.789184","CLASSIFICATION_TYPE":"U","RCS_SIZE":"LARGE","REF_FRAME":"TEME","APOAPSIS":"540.542","EPHEMERIS_TYPE":"0","INCLINATION":"53.2132","RA_OF_ASC_NODE":"217.9340","MEAN_ELEMENT_THEORY":"SGP4","OBJECT_NAME":"STARLINK-3801","TLE_LINE1":"1 52356U 22045AB  23037.79906006  .00001082  00000-0  86072-4 0  9994","OBJECT_ID":"2022-045AB","MEAN_MOTION":"15.08846256","NORAD_CAT_ID":"52356","GP_ID":"224652911","ECCENTRICITY":"0.00011790","MEAN_MOTION_DDOT":"0.0000000000000","LAUNCH_DATE":"2022-04-29","CENTER_NAME":"EARTH","TIME_SYSTEM":"UTC","ARG_OF_PERICENTER":"89.5042","REV_AT_EPOCH":"4566","TLE_LINE2":"2 52356  53.2132 217.9340 0001179  89.5042 270.6085 15.08846256 45665"},{"PERIOD":"95.437","COUNTRY_CODE":"US","BSTAR":"0.00007407600000","PERIAPSIS":"539.008","MEAN_ANOMALY":"269.7893","SEMIMAJOR_AXIS":"6917.875","SITE":"AFETR","ELEMENT_SET_NO":"999","FILE":"3776034","MEAN_MOTION_DOT":"0.00000891","DECAY_DATE":null,"RCS_SIZE":"LARGE","CLASSIFICATION_TYPE":"U","EPOCH":"2023-02-06T19:19:52.262400","OBJECT_TYPE":"PAYLOAD","MEAN_ELEMENT_THEORY":"SGP4","RA_OF_ASC_NODE":"217.9071","INCLINATION":"53.2127","EPHEMERIS_TYPE":"0","REF_FRAME":"TEME","APOAPSIS":"540.472","OBJECT_ID":"2022-045AC","TLE_LINE1":"1 52357U 22045AC  23037.80546600  .00000891  00000-0  74076-4 0  9995","OBJECT_NAME":"STARLINK-3821","TIME_SYSTEM":"UTC","CENTER_NAME":"EARTH","LAUNCH_DATE":"2022-04-29","MEAN_MOTION_DDOT":"0.0000000000000","GP_ID":"224651660","ECCENTRICITY":"0.00010580","NORAD_CAT_ID":"52357","MEAN_MOTION":"15.08841681","REV_AT_EPOCH":"4566","ARG_OF_PERICENTER":"90.3221","TLE_LINE2":"2 52357  53.2127 217.9071 0001058  90.3221 269.7893 15.08841681 45669"},{"MEAN_MOTION_DOT":"0.00002258","DECAY_DATE":null,"SITE":"AFETR","SEMIMAJOR_AXIS":"6917.853","ELEMENT_SET_NO":"999","FILE":"3776034","BSTAR":"0.00015984000000","PERIAPSIS":"538.894","MEAN_ANOMALY":"272.9814","PERIOD":"95.437","COUNTRY_CODE":"US","EPHEMERIS_TYPE":"0","APOAPSIS":"540.542","REF_FRAME":"TEME","MEAN_ELEMENT_THEORY":"SGP4","RA_OF_ASC_NODE":"217.9864","INCLINATION":"53.2132","OBJECT_TYPE":"PAYLOAD","RCS_SIZE":"LARGE","CLASSIFICATION_TYPE":"U","EPOCH":"2023-02-06T18:53:22.205184","GP_ID":"224651910","ECCENTRICITY":"0.00011910","NORAD_CAT_ID":"52358","MEAN_MOTION":"15.08849066","CENTER_NAME":"EARTH","TIME_SYSTEM":"UTC","LAUNCH_DATE":"2022-04-29","MEAN_MOTION_DDOT":"0.0000000000000","OBJECT_NAME":"STARLINK-3837","OBJECT_ID":"2022-045AD","TLE_LINE1":"1 52358U 22045AD  23037.78706256  .00002258  00000-0  15984-3 0  9999","TLE_LINE2":"2 52358  53.2132 217.9864 0001191  87.1315 272.9814 15.08849066 45666","ARG_OF_PERICENTER":"87.1315","REV_AT_EPOCH":"4566"},{"INCLINATION":"53.2150","RA_OF_ASC_NODE":"217.9165","MEAN_ELEMENT_THEORY":"SGP4","REF_FRAME":"TEME","APOAPSIS":"540.589","EPHEMERIS_TYPE":"0","EPOCH":"2023-02-06T19:14:34.060704","CLASSIFICATION_TYPE":"U","RCS_SIZE":"LARGE","OBJECT_TYPE":"PAYLOAD","FILE":"3776034","SITE":"AFETR","ELEMENT_SET_NO":"999","SEMIMAJOR_AXIS":"6917.857","DECAY_DATE":null,"MEAN_MOTION_DOT":"0.00001106","COUNTRY_CODE":"US","PERIOD":"95.437","MEAN_ANOMALY":"275.0756","PERIAPSIS":"538.856","BSTAR":"0.00008755600000","TLE_LINE2":"2 52359  53.2150 217.9165 0001252  85.0379 275.0756 15.08847493 45667","REV_AT_EPOCH":"4566","ARG_OF_PERICENTER":"85.0379","MEAN_MOTION_DDOT":"0.0000000000000","LAUNCH_DATE":"2022-04-29","TIME_SYSTEM":"UTC","CENTER_NAME":"EARTH","MEAN_MOTION":"15.08847493","NORAD_CAT_ID":"52359","ECCENTRICITY":"0.00012520","GP_ID":"224653161","TLE_LINE1":"1 52359U 22045AE  23037.80178311  .00001106  00000-0  87556-4 0  9994","OBJECT_ID":"2022-045AE","OBJECT_NAME":"STARLINK-3853"}];
